GPS BIIA-10 (PRN 32)    
1 20959U 90103A   15354.30169040  .00000105  00000-0  00000+0 0  9994
2 20959  54.2499 186.7053 0113249  10.1642 350.1166  2.00566861183574
GPS BIIR-2  (PRN 13)    
1 24876U 97035A   15353.61826442 -.00000005  00000-0  00000-0 0  9997
2 24876  55.7228 248.6174 0044492 116.2630 244.2575  2.00562101135085
GPS BIIR-3  (PRN 11)    
1 25933U 99055A   15354.31410733 -.00000025  00000-0  00000+0 0  9997
2 25933  51.2851 101.5740 0160516  85.2959 340.7720  2.00566061118718
GPS BIIR-4  (PRN 20)    
1 26360U 00025A   15354.35187338  .00000103  00000-0  00000+0 0  9993
2 26360  53.0701 177.6120 0048043  73.6403 124.1519  2.00562556114405
GPS BIIR-5  (PRN 28)    
1 26407U 00040A   15354.43158359 -.00000050  00000-0  00000+0 0  9994
2 26407  56.6941   6.3743 0202298 266.2035 265.8239  2.00560752113087
GPS BIIR-6  (PRN 14)    
1 26605U 00071A   15354.43973137  .00000002  00000-0  00000+0 0  9993
2 26605  55.2919 246.5224 0085389 249.0036 224.4985  2.00560321110683
GPS BIIR-7  (PRN 18)    
1 26690U 01004A   15354.34477891  .00000103  00000-0  00000+0 0  9992
2 26690  52.9994 180.5941 0166291 250.0107 248.3698  2.00565539109084
GPS BIIR-8  (PRN 16)    
1 27663U 03005A   15353.65172782 -.00000048  00000-0  00000-0 0  9990
2 27663  56.7704   6.1107 0082274  16.2910  77.3884  2.00563815 94440
GPS BIIR-9  (PRN 21)    
1 27704U 03010A   15354.10740567  .00000021  00000-0  00000+0 0  9994
2 27704  53.5876 120.8737 0230492 254.0594 128.5933  2.00559507 93245
GPS BIIR-10 (PRN 22)    
1 28129U 03058A   15353.70934201  .00000103  00000-0  00000+0 0  9994
2 28129  52.8757 180.6669 0076844 244.4648 114.7807  2.00394878 87942
GPS BIIR-11 (PRN 19)    
1 28190U 04009A   15354.25239375 -.00000062  00000-0  00000+0 0  9995
2 28190  55.6785  67.5518 0111447  37.2337 319.0067  2.00387767 86126
GPS BIIR-12 (PRN 23)    
1 28361U 04023A   15354.44899578  .00000010  00000-0  00000+0 0  9991
2 28361  54.2573 242.1913 0105026 211.0076 162.4990  2.00553500 84217
GPS BIIR-13 (PRN 02)    
1 28474U 04045A   15353.44558240  .00000029  00000-0  00000-0 0  9998
2 28474  53.9803 120.1487 0153193 234.4991 137.0059  2.00561545 81565
GPS BIIRM-1 (PRN 17)    
1 28874U 05038A   15354.27693508 -.00000063  00000-0  00000+0 0  9992
2 28874  55.8464  64.7372 0110283 247.0705 110.6559  2.00571060 74977
GPS BIIRM-2 (PRN 31)    
1 29486U 06042A   15354.47547902 -.00000064  00000-0  00000+0 0  9997
2 29486  55.7512 304.0378 0084365 331.4018  92.1956  2.00565396 67693
GPS BIIRM-3 (PRN 12)    
1 29601U 06052A   15354.33047934 -.00000049  00000-0  00000+0 0  9995
2 29601  56.7405   5.0103 005